[{"OBJECT_NAME":"STARLINK-34879","OBJECT_ID":"2025-190AC","EPOCH":"2026-03-09T14:12:27.901440","MEAN_MOTION":15.30183797,"ECCENTRICITY":0.0001176,"INCLINATION":53.1601,"RA_OF_ASC_NODE":168.3843,"ARG_OF_PERICENTER":94.998,"MEAN_ANOMALY":265.1155,"EPHEMERIS_TYPE":0,"CLASSIFICATION_TYPE":"U","NORAD_CAT_ID":65377,"ELEMENT_SET_NO":999,"REV_AT_EPOCH":2974,"BSTAR":0.0010921,"MEAN_MOTION_DOT":0.00032108,"MEAN_MOTION_DDOT":0},{"OBJECT_NAME":"OBJECT BC","OBJECT_ID":"2025-313BC","EPOCH":"2026-03-09T04:33:08.504064","MEAN_MOTION":15.29126358,"ECCENTRICITY":0.00084789,"INCLINATION":97.3985,"RA_OF_ASC_NODE":144.811,"ARG_OF_PERICENTER":328.9209,"MEAN_ANOMALY":31.1528,"EPHEMERIS_TYPE":0,"CLASSIFICATION_TYPE":"U","NORAD_CAT_ID":67298,"ELEMENT_SET_NO":999,"REV_AT_EPOCH":789,"BSTAR":0.0026410397,"MEAN_MOTION_DOT":0.00075331,"MEAN_MOTION_DDOT":0}]
