STARLINK-34879          
1 65377U 25190AC  26068.59198960  .00032108  00000+0  10921-2 0  9992
2 65377  53.1601 168.3843 0001176  94.9980 265.1155 15.30183797 29744
2025-313BC              
1 67298U 25313BC  26068.18968176  .00075331  00000+0  26410-2 0  9997
2 67298  97.3985 144.8110 0008478 328.9209  31.1528 15.29126358  7890
